GLOBALSTAR M024         
1 25883U 99043A   25196.76088257 -.00000121  00000+0 -19869-2 0  9997
2 25883  52.0042 316.1521 0001992 140.8173   8.4683 11.10166114118039
GLOBALSTAR M027         
1 25884U 99043B   25197.46005780 -.00000037  00000+0  10039-2 0  9991
2 25884  52.0230  33.3840 0022078  39.9916 320.2499 11.04372444144512
GLOBALSTAR M054         
1 25885U 99043C   25196.89914250 -.00000056  00000+0  37897-3 0  9992
2 25885  52.0113 157.1147 0005422 227.9926 165.1993 11.39224952122656
GLOBALSTAR M053         
1 25886U 99043D   25196.88525227 -.00000060  00000+0  26498-3 0  9994
2 25886  51.9983 105.8351 0003130 118.7036 319.0023 11.27665754122683
GLOBALSTAR M058         
1 25907U 99049A   25197.54480809 -.00000060  00000+0  33166-3 0  9994
2 25907  51.9956  30.7823 0001937 347.2022  12.8763 11.93200583156251
GLOBALSTAR M050         
1 25908U 99049B   25197.50837296 -.00000026  00000+0  70109-3 0  9997
2 25908  52.0003  36.3649 0009977  89.1261 286.3437 12.07454447156469
GLOBALSTAR M033         
1 25909U 99049C   25196.44496526 -.00000092  00000+0 -16190-6 0  9994
2 25909  51.9910 269.1657 0013219 320.7007  39.2881 12.20295208539192
GLOBALSTAR M055         
1 25910U 99049D   25197.19981916 -.00000080  00000+0  12379-3 0  9999
2 25910  52.0021 276.3775 0007378 189.4546 170.6168 12.29429847172072
